OBJECT_NAME,OBJECT_ID,EPOCH,MEAN_MOTION,ECCENTRICITY,INCLINATION,RA_OF_ASC_NODE,ARG_OF_PERICENTER,MEAN_ANOMALY,EPHEMERIS_TYPE,CLASSIFICATION_TYPE,NORAD_CAT_ID,ELEMENT_SET_NO,REV_AT_EPOCH,BSTAR,MEAN_MOTION_DOT,MEAN_MOTION_DDOT
DONGPO 02,2022-098J,2026-06-13T23:59:30.986880,15.74035042,.00020347,97.5515,295.9132,282.6019,77.5017,0,U,53452,999,21429,.78990934E-3,.113495E-2,0
DONGPO 01,2022-098K,2026-06-15T07:44:36.070944,15.72150326,.00017723,97.5585,297.8807,233.5571,126.5529,0,U,53453,999,21446,.58001474E-3,.76557E-3,0
STARLINK-4400,2022-099D,2026-06-15T07:37:18.454944,15.05646741,.00020402,97.3556,285.4327,110.4073,249.7374,0,U,53468,999,21066,.59881851E-4,.807E-5,0
STARLINK-4621,2022-105AE,2026-06-15T06:05:35.775456,15.05650647,.00022705,97.3588,45.3839,86.8529,273.2958,0,U,53676,999,20791,-.20459171E-4,-.353E-5,0
SHERPA-LTC2,2022-107BG,2026-06-14T20:58:49.404288,14.69692269,.0394057,53.2350,230.1222,219.5563,137.6042,0,U,53754,999,20220,.28028E-3,.5445E-4,0
CENTISPACE-1 S3,2022-108A,2026-06-15T05:22:38.063424,14.61250363,.00092498,53.5334,63.3767,349.7492,10.3293,0,U,53757,999,20124,.11839003E-3,.399E-5,0
CENTISPACE-1 S4,2022-108B,2026-06-15T05:01:19.560288,14.61930836,.00084517,53.5310,60.9651,337.6589,22.4017,0,U,53758,999,20127,.14892717E-3,.561E-5,0
BLUEWALKER-3,2022-111AL,2026-06-14T23:17:49.470144,15.38247947,.00065008,53.2301,44.3776,154.1629,205.9702,0,U,53807,999,20986,.1456734E-3,.5181E-4,0
YUNHAI-1 03,2022-115A,2026-06-15T05:34:05.323584,14.32716733,.00058484,98.5531,164.4039,60.3636,299.8130,0,U,53877,999,19523,.11514353E-3,.27E-5,0
CENTISPACE-1 S5,2022-126A,2026-06-15T05:44:04.790112,14.63011860,.0014546,54.9978,220.7568,68.8604,291.3943,0,U,54020,999,19675,.12843405E-3,.474E-5,0
CENTISPACE-1 S6,2022-126B,2026-06-15T07:11:17.637216,14.62289248,.00163913,54.9982,222.3708,69.0159,291.2586,0,U,54021,999,19672,.95474369E-4,.297E-5,0
OTB-3-GAZELLE,2022-127A,2026-06-15T06:09:24.325920,14.42673800,.00128386,98.3943,157.9902,189.0817,171.0143,0,U,54023,999,19408,.47777653E-4,.116E-5,0
ASO-S,2022-129A,2026-06-15T06:07:53.375232,14.52060908,.00157572,98.2747,171.3636,98.0872,262.2112,0,U,54029,999,19514,.54055348E-4,.174E-5,0
HJ-2E,2022-132A,2026-06-15T07:30:43.674336,15.22290172,.00207785,97.3791,170.7230,21.6135,338.5974,0,U,54035,999,20413,.28024424E-3,.6421E-4,0
COSMOS 2561,2022-137A,2026-06-15T05:27:26.388864,15.51659122,.0010898,96.9180,225.3016,42.7660,317.4439,0,U,54109,999,20604,.18747E-3,.11079E-3,0
GONETS-M 23,2022-139A,2026-06-15T06:00:29.742336,12.42890788,.00208208,82.5073,349.4983,224.0922,135.8498,0,U,54150,999,16540,.17197818E-3,.34E-6,0
GONETS-M 24,2022-139B,2026-06-15T07:17:40.014240,12.42891451,.00159579,82.4989,348.5261,234.3499,125.6095,0,U,54151,999,16541,.18668675E-3,.36E-6,0
GONETS-M 25,2022-139C,2026-06-15T06:58:03.546048,12.42889971,.00198722,82.5047,349.2199,233.1529,126.7729,0,U,54152,999,16541,.53422802E-4,.17E-6,0
SKIF-D,2022-139D,2026-06-15T06:11:46.128192,5.00428011,.00073861,89.9511,96.6682,200.0238,159.9932,0,U,54153,999,6401,0,.6E-7,0
MATS,2022-147A,2026-06-14T23:43:11.471808,15.05344786,.00117686,97.6820,167.5947,198.3593,161.7210,0,U,54227,999,19743,.18747203E-3,.2625E-4,0
JILIN-1 GAOFEN 03D54,2022-155D,2026-06-15T05:00:29.412000,15.97367336,.00052791,97.6113,319.0559,263.8870,96.1805,0,U,54254,999,19998,.72719635E-3,.317969E-2,.43065491E-4
EOS-6 (OCEANSAT-3),2022-158A,2026-06-15T07:05:47.976288,14.46999411,.00013098,98.3539,264.5149,50.2355,309.8952,0,U,54361,999,18756,.74587212E-4,.228E-5,0
DONGPO 09,2022-167D,2026-06-15T07:49:05.045376,15.36298611,.00035111,97.6891,337.2493,120.2734,239.8857,0,U,54685,999,19516,.26854841E-3,.942E-4,0
DONGPO 08,2022-167E,2026-06-15T07:16:16.517280,15.33612470,.00085214,97.6856,334.4124,166.5629,193.5841,0,U,54686,999,19503,.27861224E-3,.898E-4,0
2022-167F,2022-167F,2026-06-15T06:16:42.132864,15.91929106,.00014267,97.6110,353.9417,228.8871,131.2279,0,U,54687,999,19652,.63241029E-3,.206733E-2,.18090815E-4
DONGPO 10,2022-167H,2026-06-15T07:27:16.343712,15.34419984,.00062578,97.6935,336.3675,115.3094,244.8797,0,U,54689,999,19507,.27604729E-3,.9123E-4,0
JILIN-1 GAOFEN 03D48,2022-167P,2026-06-15T07:25:19.202592,15.35185718,.00075877,97.6870,335.7433,120.3171,239.8823,0,U,54695,999,19510,.2697201E-3,.9135E-4,0
STAR VIBE,2023-001A,2026-06-15T05:22:59.249568,15.42569799,.00071443,97.3175,230.6801,118.0683,242.1287,0,U,55009,999,19192,.28403338E-3,.12267E-3,0
BRO-8,2023-001C,2026-06-15T07:17:39.957216,15.48957106,.00067851,97.3218,231.4602,128.9905,231.1951,0,U,55011,999,19191,.47068053E-3,.25405E-3,0
CONNECTA T1.2,2023-001D,2026-06-15T07:11:13.879680,15.50594101,.00066613,97.3276,236.9563,108.4248,251.7728,0,U,55012,999,19225,.61279661E-3,.35107E-3,0
