DONGPO 02               
1 53452U 22098J   26164.99966420  .00113495  00000+0  78991-3 0  9993
2 53452  97.5515 295.9132 0002034 282.6019  77.5017 15.74035042214297
DONGPO 01               
1 53453U 22098K   26166.32263971  .00076557  00000+0  58001-3 0  9991
2 53453  97.5585 297.8807 0001772 233.5571 126.5529 15.72150326214464
STARLINK-4400           
1 53468U 22099D   26166.31757471  .00000807  00000+0  59882-4 0  9994
2 53468  97.3556 285.4327 0002040 110.4073 249.7374 15.05646741210666
STARLINK-4621           
1 53676U 22105AE  26166.25388629 -.00000353  00000+0 -20459-4 0  9997
2 53676  97.3588  45.3839 0002270  86.8529 273.2958 15.05650647207914
SHERPA-LTC2             
1 53754U 22107BG  26165.87418292  .00005445  00000+0  28028-3 0  9997
2 53754  53.2350 230.1222 0394057 219.5563 137.6042 14.69692269202208
CENTISPACE-1 S3         
1 53757U 22108A   26166.22405166  .00000399  00000+0  11839-3 0  9992
2 53757  53.5334  63.3767 0009249 349.7492  10.3293 14.61250363201244
CENTISPACE-1 S4         
1 53758U 22108B   26166.20925417  .00000561  00000+0  14893-3 0  9991
2 53758  53.5310  60.9651 0008451 337.6589  22.4017 14.61930836201272
BLUEWALKER-3            
1 53807U 22111AL  26165.97071146  .00005181  00000+0  14567-3 0  9995
2 53807  53.2301  44.3776 0006500 154.1629 205.9702 15.38247947209869
YUNHAI-1 03             
1 53877U 22115A   26166.23200606  .00000270  00000+0  11514-3 0  9994
2 53877  98.5531 164.4039 0005848  60.3636 299.8130 14.32716733195238
CENTISPACE-1 S5         
1 54020U 22126A   26166.23894433  .00000474  00000+0  12843-3 0  9996
2 54020  54.9978 220.7568 0014546  68.8604 291.3943 14.63011860196756
CENTISPACE-1 S6         
1 54021U 22126B   26166.29950969  .00000297  00000+0  95474-4 0  9995
2 54021  54.9982 222.3708 0016391  69.0159 291.2586 14.62289248196729
OTB-3-GAZELLE           
1 54023U 22127A   26166.25653155  .00000116  00000+0  47778-4 0  9995
2 54023  98.3943 157.9902 0012838 189.0817 171.0143 14.42673800194085
ASO-S                   
1 54029U 22129A   26166.25547888  .00000174  00000+0  54055-4 0  9998
2 54029  98.2747 171.3636 0015757  98.0872 262.2112 14.52060908195146
HJ-2E                   
1 54035U 22132A   26166.31300549  .00006421  00000+0  28024-3 0  9994
2 54035  97.3791 170.7230 0020778  21.6135 338.5974 15.22290172204137
COSMOS 2561             
1 54109U 22137A   26166.22738876  .00011079  00000+0  18747-3 0  9995
2 54109  96.9180 225.3016 0010898  42.7660 317.4439 15.51659122206044
GONETS-M 23             
1 54150U 22139A   26166.25034424  .00000034  00000+0  17198-3 0  9992
2 54150  82.5073 349.4983 0020820 224.0922 135.8498 12.42890788165408
GONETS-M 24             
1 54151U 22139B   26166.30393535  .00000036  00000+0  18669-3 0  9996
2 54151  82.4989 348.5261 0015957 234.3499 125.6095 12.42891451165410
GONETS-M 25             
1 54152U 22139C   26166.29031882  .00000017  00000+0  53423-4 0  9996
2 54152  82.5047 349.2199 0019872 233.1529 126.7729 12.42889971165416
SKIF-D                  
1 54153U 22139D   26166.25817278  .00000006  00000+0  00000+0 0  9990
2 54153  89.9511  96.6682 0007386 200.0238 159.9932  5.00428011 64019
MATS                    
1 54227U 22147A   26165.98832722  .00002625  00000+0  18747-3 0  9991
2 54227  97.6820 167.5947 0011768 198.3593 161.7210 15.05344786197439
JILIN-1 GAOFEN 03D54    
1 54254U 22155D   26166.20867375  .00317969  43065-4  72720-3 0  9992
2 54254  97.6113 319.0559 0005279 263.8870  96.1805 15.97367336199983
EOS-6 (OCEANSAT-3)      
1 54361U 22158A   26166.29569417  .00000228  00000+0  74587-4 0  9997
2 54361  98.3539 264.5149 0001309  50.2355 309.8952 14.46999411187563
DONGPO 09               
1 54685U 22167D   26166.32575284  .00009420  00000+0  26855-3 0  9996
2 54685  97.6891 337.2493 0003511 120.2734 239.8857 15.36298611195166
DONGPO 08               
1 54686U 22167E   26166.30296895  .00008980  00000+0  27861-3 0  9991
2 54686  97.6856 334.4124 0008521 166.5629 193.5841 15.33612470195035
2022-167F               
1 54687U 22167F   26166.26159876  .00206733  18091-4  63241-3 0  9996
2 54687  97.6110 353.9417 0001426 228.8871 131.2279 15.91929106196528
DONGPO 10               
1 54689U 22167H   26166.31060583  .00009123  00000+0  27605-3 0  9994
2 54689  97.6935 336.3675 0006257 115.3094 244.8797 15.34419984195070
JILIN-1 GAOFEN 03D48    
1 54695U 22167P   26166.30925003  .00009135  00000+0  26972-3 0  9996
2 54695  97.6870 335.7433 0007587 120.3171 239.8823 15.35185718195103
STAR VIBE               
1 55009U 23001A   26166.22429687  .00012267  00000+0  28403-3 0  9993
2 55009  97.3175 230.6801 0007144 118.0683 242.1287 15.42569799191921
BRO-8                   
1 55011U 23001C   26166.30393469  .00025405  00000+0  47068-3 0  9999
2 55011  97.3218 231.4602 0006785 128.9905 231.1951 15.48957106191911
CONNECTA T1.2           
1 55012U 23001D   26166.29946620  .00035107  00000+0  61280-3 0  9993
2 55012  97.3276 236.9563 0006661 108.4248 251.7728 15.50594101192251
